

*******************************************************************************
Ephemeris / WWW_USER Fri May  5 12:38:34 2023 Pasadena, USA      / Horizons
*******************************************************************************
Target body name: Pioneer 6 (spacecraft) (-6)     {source: pio6-a}
Center body name: Sun (10)                        {source: pio6-a}
Center-site name: BODY CENTER
*******************************************************************************
Start time      : A.D. 1996-Jan-01 00:01:02.1840 TDB
Stop  time      : A.D. 1999-Dec-30 00:01:02.1838 TDB
Step-size       : 4320 minutes
*******************************************************************************
Center geodetic : 0.0, 0.0, 0.0                   {E-lon(deg),Lat(deg),Alt(km)}
Center cylindric: 0.0, 0.0, 0.0                   {E-lon(deg),Dxy(km),Dz(km)}
Center radii    : 696000.0, 696000.0, 696000.0 km {Equator_a, b, pole_c}
Output units    : KM-S
Calendar mode   : Mixed Julian/Gregorian
Output type     : GEOMETRIC cartesian states
Output format   : 1 (position only)
Reference frame : Ecliptic of J2000.0
*******************************************************************************
            JDTDB,            Calendar Date (TDB),                      X,                      Y,                      Z,
**************************************************************************************************************************
$$SOE
2450911.500719722, A.D. 1998-Apr-08 00:01:02.1840,  1.335770323276599E+08, -1.475349763344763E+07,  4.255427110200617E+05,
2450914.500719722, A.D. 1998-Apr-11 00:01:02.1840,  1.349063205102099E+08, -6.688391762891738E+06,  4.235329580297396E+05,
2450917.500719722, A.D. 1998-Apr-14 00:01:02.1840,  1.357476599432007E+08,  1.400980464404908E+06,  4.199912500381886E+05,
2450920.500719722, A.D. 1998-Apr-17 00:01:02.1840,  1.361053708011809E+08,  9.485434169086972E+06,  4.149531801252575E+05,
2450923.500719722, A.D. 1998-Apr-20 00:01:02.1840,  1.359853909291314E+08,  1.753666749813215E+07,  4.084586875379588E+05,
2450926.500719722, A.D. 1998-Apr-23 00:01:02.1840,  1.353951578874368E+08,  2.552732587260213E+07,  4.005516429657917E+05,
2450929.500719722, A.D. 1998-Apr-26 00:01:02.1840,  1.343434935940328E+08,  3.343105329591011E+07,  3.912794517113455E+05,
2450932.500719722, A.D. 1998-Apr-29 00:01:02.1840,  1.328404926142131E+08,  4.122253195669786E+07,  3.806926770760994E+05,
2450935.500719722, A.D. 1998-May-02 00:01:02.1840,  1.308974149243213E+08,  4.887751136949748E+07,  3.688446855787747E+05,
2450938.500719722, A.D. 1998-May-05 00:01:02.1840,  1.285265837728251E+08,  5.637282827769396E+07,  3.557913150091879E+05,
2450941.500719722, A.D. 1998-May-08 00:01:02.1840,  1.257412890822453E+08,  6.368641850299527E+07,  3.415905657925270E+05,
2450944.500719722, A.D. 1998-May-11 00:01:02.1840,  1.225556966782433E+08,  7.079732186912856E+07,  3.263023156946413E+05,
2450947.500719722, A.D. 1998-May-14 00:01:02.1840,  1.189847634971951E+08,  7.768568125959966E+07,  3.099880575317666E+05,
2450950.500719722, A.D. 1998-May-17 00:01:02.1840,  1.150441588095979E+08,  8.433273679414882E+07,  2.927106592522860E+05,
2450953.500719722, A.D. 1998-May-20 00:01:02.1840,  1.107501914020142E+08,  9.072081602940024E+07,  2.745341455208212E+05,
2450956.500719722, A.D. 1998-May-23 00:01:02.1840,  1.061197425831747E+08,  9.683332100882660E+07,  2.555234997696877E+05,
2450959.500719722, A.D. 1998-May-26 00:01:02.1840,  1.011702048182821E+08,  1.026547129077698E+08,  2.357444855297878E+05,
2450962.500719722, A.D. 1998-May-29 00:01:02.1840,  9.591942574763364E+07,  1.081704949423529E+08,  2.152634857861176E+05,
2450965.500719722, A.D. 1998-Jun-01 00:01:02.1840,  9.038565730937812E+07,  1.133671941380054E+08,  1.941473590313718E+05,
2450968.500719722, A.D. 1998-Jun-04 00:01:02.1840,  8.458750965980454E+07,  1.182323424847006E+08,  1.724633106669486E+05,
2450971.500719722, A.D. 1998-Jun-07 00:01:02.1840,  7.854390956631657E+07,  1.227544579423967E+08,  1.502787783908993E+05,
2450974.500719722, A.D. 1998-Jun-10 00:01:02.1840,  7.227406293665561E+07,  1.269230257018034E+08,  1.276613302215487E+05,
2450977.500719722, A.D. 1998-Jun-13 00:01:02.1840,  6.579742114164224E+07,  1.307284800524977E+08,  1.046785738256797E+05,
2450980.500719722, A.D. 1998-Jun-16 00:01:02.1840,  5.913365078649481E+07,  1.341621871624598E+08,  8.139807585054636E+04,
2450983.500719722, A.D. 1998-Jun-19 00:01:02.1840,  5.230260658661596E+07,  1.372164290300574E+08,  5.788728999347240E+04,
2450986.500719722, A.D. 1998-Jun-22 00:01:02.1840,  4.532430700670445E+07,  1.398843888310435E+08,  3.421349258197844E+04,
2450989.500719722, A.D. 1998-Jun-25 00:01:02.1840,  3.821891232636821E+07,  1.421601378488779E+08,  1.044372447623312E+04,
2450992.500719722, A.D. 1998-Jun-28 00:01:02.1840,  3.100670480047401E+07,  1.440386241461779E+08, -1.335526185498387E+04,
2450995.500719722, A.D. 1998-Jul-01 00:01:02.1840,  2.370807058766705E+07,  1.455156631079469E+08, -3.711705119735003E+04,
2450998.500719722, A.D. 1998-Jul-04 00:01:02.1840,  1.634348312545037E+07,  1.465879299628971E+08, -6.077561147119850E+04,
2451001.500719722, A.D. 1998-Jul-07 00:01:02.1840,  8.933487634524770E+06,  1.472529543672364E+08, -8.426533767758310E+04,
2451004.500719722, A.D. 1998-Jul-10 00:01:02.1840,  1.498686438495438E+06,  1.475091171152323E+08, -1.075210949321687E+05,
2451007.500719722, A.D. 1998-Jul-13 00:01:02.1840, -5.940275212669916E+06,  1.473556490222225E+08, -1.304782615890726E+05,
2451010.500719722, A.D. 1998-Jul-16 00:01:02.1840, -1.336272312604269E+07,  1.467926320080265E+08, -1.530727734383792E+05,
2451013.500719722, A.D. 1998-Jul-19 00:01:02.1840, -2.074796826697265E+07,  1.458210023914480E+08, -1.752411699508056E+05,
2451016.500719722, A.D. 1998-Jul-22 00:01:02.1840, -2.807532129091609E+07,  1.444425563892708E+08, -1.969206435339972E+05,
2451019.500719722, A.D. 1998-Jul-25 00:01:02.1840, -3.532410782177266E+07,  1.426599577952967E+08, -2.180490927626193E+05,
2451022.500719722, A.D. 1998-Jul-28 00:01:02.1840, -4.247368479713254E+07,  1.404767477962073E+08, -2.385651805420667E+05,
2451025.500719722, A.D. 1998-Jul-31 00:01:02.1840, -4.950345820651330E+07,  1.378973568606450E+08, -2.584083981695920E+05,
2451028.500719722, A.D. 1998-Aug-03 00:01:02.1840, -5.639290255532884E+07,  1.349271186156025E+08, -2.775191362595484E+05,
2451031.500719722, A.D. 1998-Aug-06 00:01:02.1840, -6.312158239472510E+07,  1.315722855993575E+08, -2.958387635032311E+05,
2451034.500719722, A.D. 1998-Aug-09 00:01:02.1840, -6.966917626518852E+07,  1.278400467523217E+08, -3.133097142373398E+05,
2451037.500719722, A.D. 1998-Aug-12 00:01:02.1840, -7.601550340954340E+07,  1.237385464757885E+08, -3.298755857946351E+05,
2451040.500719722, A.D. 1998-Aug-15 00:01:02.1840, -8.214055361806674E+07,  1.192769050531547E+08, -3.454812466056496E+05,
2451043.500719722, A.D. 1998-Aug-18 00:01:02.1840, -8.802452057430446E+07,  1.144652401882936E+08, -3.600729560082480E+05,
2451046.500719722, A.D. 1998-Aug-21 00:01:02.1840, -9.364783907398364E+07,  1.093146893709288E+08, -3.735984966993108E+05,
2451049.500719722, A.D. 1998-Aug-24 00:01:02.1840, -9.899122649025804E+07,  1.038374327287198E+08, -3.860073207284212E+05,
2451052.500719722, A.D. 1998-Aug-27 00:01:02.1840, -1.040357288552951E+08,  9.804671597003001E+07, -3.972507098775506E+05,
2451055.500719722, A.D. 1998-Aug-30 00:01:02.1840, -1.087627719196808E+08,  9.195687295981865E+07, -4.072819512034319E+05,
2451058.500719722, A.D. 1998-Sep-02 00:01:02.1840, -1.131542175358154E+08,  8.558334740376040E+07, -4.160565284145735E+05,
2451061.500719722, A.D. 1998-Sep-05 00:01:02.1840, -1.171924256878225E+08,  7.894271304273197E+07, -4.235323296298273E+05,
2451064.500719722, A.D. 1998-Sep-08 00:01:02.1840, -1.208603224566904E+08,  7.205269168164888E+07, -4.296698718997762E+05,
2451067.500719722, A.D. 1998-Sep-11 00:01:02.1840, -1.241414741634781E+08,  6.493216829406404E+07, -4.344325426671840E+05,
2451070.500719722, A.D. 1998-Sep-14 00:01:02.1840, -1.270201678733887E+08,  5.760120235810847E+07, -4.377868580913953E+05,
2451073.500719722, A.D. 1998-Sep-17 00:01:02.1840, -1.294814983672031E+08,  5.008103449190394E+07, -4.397027378586046E+05,
2451076.500719722, A.D. 1998-Sep-20 00:01:02.1840, -1.315114615918478E+08,  4.239408736968960E+07, -4.401537957394924E+05,
2451079.500719722, A.D. 1998-Sep-23 00:01:02.1840, -1.330970544867082E+08,  3.456395981639808E+07, -4.391176447356138E+05,
2451082.500719722, A.D. 1998-Sep-26 00:01:02.1840, -1.342263809448908E+08,  2.661541290179441E+07, -4.365762151709404E+05,
2451085.500719722, A.D. 1998-Sep-29 00:01:02.1840, -1.348887635075730E+08,  1.857434678980410E+07, -4.325160835360894E+05,
2451088.500719722, A.D. 1998-Oct-02 00:01:02.1840, -1.350748602040697E+08,  1.046776704932263E+07, -4.269288092788723E+05,
2451091.500719722, A.D. 1998-Oct-05 00:01:02.1840, -1.347767857401758E+08,  2.323739105355137E+06, -4.198112760647163E+05,
2451094.500719722, A.D. 1998-Oct-08 00:01:02.1840, -1.339882360041111E+08, -5.828670489743490E+06, -4.111660333037945E+05,
2451097.500719722, A.D. 1998-Oct-11 00:01:02.1840, -1.327046146049854E+08, -1.395946724898965E+07, -4.010016329842219E+05,
2451100.500719722, A.D. 1998-Oct-14 00:01:02.1840, -1.309231598876914E+08, -2.203781761278644E+07, -3.893329560672930E+05,
2451103.500719722, A.D. 1998-Oct-17 00:01:02.1840, -1.286430705862190E+08, -3.003215455712269E+07, -3.761815219250675E+05,
2451106.500719722, A.D. 1998-Oct-20 00:01:02.1840, -1.258656279928235E+08, -3.791030083993752E+07, -3.615757735582609E+05,
2451109.500719722, A.D. 1998-Oct-23 00:01:02.1840, -1.225943122436376E+08, -4.563961053057181E+07, -3.455513306615464E+05,
2451112.500719722, A.D. 1998-Oct-26 00:01:02.1840, -1.188349100648253E+08, -5.318712915398546E+07, -3.281512020462267E+05,
2451115.500719722, A.D. 1998-Oct-29 00:01:02.1840, -1.145956111019549E+08, -6.051977240037069E+07, -3.094259485329427E+05,
